[{"OBJECT_NAME":"STARLINK-2714","OBJECT_ID":"2021-041BC","EPOCH":"2026-03-09T12:09:07.246368","MEAN_MOTION":15.06404435,"ECCENTRICITY":0.00013941,"INCLINATION":53.0552,"RA_OF_ASC_NODE":112.4423,"ARG_OF_PERICENTER":94.341,"MEAN_ANOMALY":265.7738,"EPHEMERIS_TYPE":0,"CLASSIFICATION_TYPE":"U","NORAD_CAT_ID":48603,"ELEMENT_SET_NO":999,"REV_AT_EPOCH":26672,"BSTAR":0.00015382409,"MEAN_MOTION_DOT":2.011e-5,"MEAN_MOTION_DDOT":0},{"OBJECT_NAME":"PEGASUS DEB","OBJECT_ID":"1994-029AFX","EPOCH":"2026-03-01T06:33:22.731264","MEAN_MOTION":14.85739755,"ECCENTRICITY":0.0106553,"INCLINATION":81.851,"RA_OF_ASC_NODE":257.2393,"ARG_OF_PERICENTER":271.4617,"MEAN_ANOMALY":87.4394,"EPHEMERIS_TYPE":0,"CLASSIFICATION_TYPE":"U","NORAD_CAT_ID":39924,"ELEMENT_SET_NO":999,"REV_AT_EPOCH":63095,"BSTAR":0.00041812,"MEAN_MOTION_DOT":4.045e-5,"MEAN_MOTION_DDOT":0}]
